OBJECT_NAME,OBJECT_ID,EPOCH,MEAN_MOTION,ECCENTRICITY,INCLINATION,RA_OF_ASC_NODE,ARG_OF_PERICENTER,MEAN_ANOMALY,EPHEMERIS_TYPE,CLASSIFICATION_TYPE,NORAD_CAT_ID,ELEMENT_SET_NO,REV_AT_EPOCH,BSTAR,MEAN_MOTION_DOT,MEAN_MOTION_DDOT
SIRION PATHFINDER-2,2018-099B,2026-06-25T16:54:18.434592,15.14618817,.0007067,97.4252,225.5592,268.5971,91.4452,0,U,43759,999,41391,.2932E-3,.5354E-4,0
CORVUS BC4,2018-099K,2026-06-25T15:45:09.834912,15.12557878,.0007359,97.4067,219.3884,343.2365,16.8622,0,U,43767,999,41368,.30476E-3,.5254E-4,0
M2 PATHFINDER,2020-037E,2026-06-25T11:49:06.682080,15.04704429,.0012594,97.8138,7.8170,122.0421,238.2030,0,U,45727,999,32674,.17753E-3,.2439E-4,0
NETSAT-4,2020-068U,2026-06-25T11:38:42.015264,15.44122705,.0003196,97.8604,185.3934,293.5185,66.5726,0,U,46504,999,31705,.47719E-3,.21779E-3,0
NETSAT-3,2020-068V,2026-06-25T19:43:48.243360,15.42959601,.0003167,97.8653,183.9631,320.6779,39.4236,0,U,46505,999,31701,.49569E-3,.21758E-3,0
NETSAT-1,2020-068W,2026-06-25T13:06:32.995008,15.34821083,.0003995,97.8743,177.8976,5.0239,355.1042,0,U,46506,999,31658,.45609E-3,.15327E-3,0
NETSAT-2,2020-068X,2026-06-25T20:05:31.353216,15.46351535,.0002118,97.8615,185.7004,355.0491,5.0736,0,U,46507,999,31707,.52091E-3,.25671E-3,0
GREENCUBE (IO-117),2022-080E,2026-06-25T17:51:47.627136,6.42583224,.0008975,70.1444,295.2691,287.7502,72.2178,0,U,53109,999,9261,0,-.3E-7,0
SITRO-AIS 5 (KATYS),2023-091L,2026-06-25T20:04:26.752800,15.29642249,.0012499,97.5063,240.8183,76.5887,283.6745,0,U,57176,999,16566,.49038E-3,.14051E-3,0
SITRO-AIS 6 (CHIRKIN),2023-091AC,2026-06-25T20:02:58.413984,15.26089500,.0012916,97.5071,239.8904,79.8089,280.4605,0,U,57192,999,16560,.46065E-3,.11837E-3,0
SITRO-AIS 8 (ANOKHIN),2023-091AD,2026-06-25T20:07:04.023264,15.32354437,.0011444,97.5060,242.4442,73.0772,287.1723,0,U,57193,999,16577,.52788E-3,.16461E-3,0
SITRO-AIS 7 (FARTUSHNIY),2023-091AE,2026-06-25T20:10:03.950400,15.25773907,.0012788,97.5069,239.7159,80.7587,279.5096,0,U,57194,999,16559,.46107E-3,.11735E-3,0
SITRO-AIS 10 (BURDAEV),2023-091AK,2026-06-25T19:59:46.104864,15.38921441,.0006804,97.5085,247.5832,53.9146,306.2728,0,U,57199,999,16609,.58313E-3,.22429E-3,0
SITRO-AIS 9 (SHCHUKIN),2023-091AM,2026-06-25T20:41:47.516064,15.38421929,.0007086,97.5083,247.3360,53.9073,306.2827,0,U,57201,999,16608,.58619E-3,.22184E-3,0
SITRO-AIS 12 (SMIRENNIY),2023-091AQ,2026-06-25T20:25:54.327936,15.38714718,.0006586,97.5096,247.7973,48.6896,311.4915,0,U,57204,999,16610,.56672E-3,.21646E-3,0
SITRO-AIS 11 (SHEFFER),2023-091AU,2026-06-25T20:41:45.561696,15.39144673,.0006482,97.5094,248.0608,48.4966,311.6835,0,U,57208,999,16612,.57276E-3,.22188E-3,0
SITRO-AIS 25,2024-039R,2026-06-25T21:14:18.060864,14.93552453,.014262,95.3909,241.0695,298.0121,60.6737,0,U,59066,999,12602,.17915E-3,.2269E-4,0
SITRO-AIS 26,2024-039S,2026-06-25T21:17:59.449632,14.93346856,.0142987,95.3910,240.9670,298.6040,60.0862,0,U,59067,999,12601,.17404E-3,.2193E-4,0
SITRO-AIS 27,2024-039T,2026-06-25T20:31:38.184384,14.93767596,.0141948,95.3911,241.2205,297.2713,61.4114,0,U,59068,999,12603,.24296E-3,.3104E-4,0
SITRO-AIS 28,2024-039U,2026-06-25T19:58:51.994272,14.93800035,.0141934,95.3910,241.2528,297.1855,61.4962,0,U,59071,999,12603,.19859E-3,.2532E-4,0
GRBBETA,2024-128C,2026-06-25T13:58:33.083040,15.06684768,.0039565,61.9879,186.8103,136.4274,223.9956,0,U,60237,999,10753,.2454E-3,.3506E-4,0
OOV-CUBE (TUBSAT-30),2024-128F,2026-06-25T08:56:48.001920,15.02800403,.0043615,61.9924,197.0293,135.5897,224.8705,0,U,60240,999,10734,.13378E-3,.1619E-4,0
ROBUSTA-3A (MEDITERRANEE),2024-128J,2026-06-24T17:47:56.002560,15.11735460,.00403168,61.9846,181.5272,129.6556,230.8108,0,U,60243,999,10756,.26284569E-3,.4361E-4,0
LASARSAT,2024-247Q,2026-06-25T13:35:57.772032,15.46829898,.0007292,44.9730,215.1121,21.4252,338.6942,0,U,62391,999,8461,.7287E-3,.37258E-3,0
CROCUBE,2024-247T,2026-06-24T09:26:02.551776,15.48681185,.00072263,44.9701,218.9251,18.8099,341.3058,0,U,62394,999,8446,.56516968E-3,.30725E-3,0
FORESAIL-1 PRIME,2025-276DS,2026-06-25T15:03:51.501024,15.18772814,.0003944,97.4201,249.7440,86.1768,273.9917,0,U,66778,999,3168,.28143E-3,.5785E-4,0
KNACKSAT-2,1998-067XZ,2026-06-25T10:05:21.537888,15.60671397,.0008709,51.6277,253.0425,252.4154,107.5888,0,U,67683,999,2156,.64307E-3,.54321E-3,0
